start=new Date('2023-03-13T00:00:00.000Z').valueOf();
sats=[{"ARG_OF_PERICENTER":"275.8840","TIME_SYSTEM":"UTC","APOAPSIS":"360.886","LAUNCH_DATE":"2023-02-17","INCLINATION":"70.0015","OBJECT_NAME":"STARLINK-5477","GP_ID":"227966775","RCS_SIZE":"LARGE","SITE":"AFWTR","CLASSIFICATION_TYPE":"U","PERIAPSIS":"357.283","NORAD_CAT_ID":"55659","OBJECT_ID":"2023-021AH","FILE":"3858743","COUNTRY_CODE":"US","MEAN_ANOMALY":"84.2051","ECCENTRICITY":"0.00026740","DECAY_DATE":null,"SEMIMAJOR_AXIS":"6737.219","TLE_LINE2":"2 55659  70.0015  85.9237 0002674 275.8840  84.2051 15.69935213  4426","MEAN_MOTION":"15.69935213","PERIOD":"91.724","REV_AT_EPOCH":"442","TLE_LINE1":"1 55659U 23021AH  23071.53471998  .00006841  00000-0  58595-4 0  9992","BSTAR":"0.00005859500000","CENTER_NAME":"EARTH","OBJECT_TYPE":"PAYLOAD","ELEMENT_SET_NO":"999","MEAN_MOTION_DOT":"0.00006841","EPHEMERIS_TYPE":"0","EPOCH":"2023-03-12T12:49:59.806272","REF_FRAME":"TEME","RA_OF_ASC_NODE":"85.9237","MEAN_MOTION_DDOT":"0.0000000000000","MEAN_ELEMENT_THEORY":"SGP4"},{"REF_FRAME":"TEME","EPOCH":"2023-03-12T12:50:27.930336","RA_OF_ASC_NODE":"85.9245","MEAN_MOTION_DDOT":"0.0000000000000","MEAN_ELEMENT_THEORY":"SGP4","ELEMENT_SET_NO":"999","EPHEMERIS_TYPE":"0","MEAN_MOTION_DOT":"0.00000535","PERIOD":"91.725","MEAN_MOTION":"15.69912751","REV_AT_EPOCH":"442","TLE_LINE1":"1 55660U 23021AJ  23071.53504549  .00000535  00000-0  62226-5 0  9994","BSTAR":"0.00000622260000","CENTER_NAME":"EARTH","OBJECT_TYPE":"PAYLOAD","MEAN_ANOMALY":"83.8088","ECCENTRICITY":"0.00033550","DECAY_DATE":null,"SEMIMAJOR_AXIS":"6737.284","TLE_LINE2":"2 55660  70.0004  85.9245 0003355 276.2726  83.8088 15.69912751  4427","OBJECT_ID":"2023-021AJ","FILE":"3858743","COUNTRY_CODE":"US","NORAD_CAT_ID":"55660","LAUNCH_DATE":"2023-02-17","INCLINATION":"70.0004","OBJECT_NAME":"STARLINK-5467","GP_ID":"227965771","RCS_SIZE":"LARGE","CLASSIFICATION_TYPE":"U","SITE":"AFWTR","PERIAPSIS":"356.888","ARG_OF_PERICENTER":"276.2726","TIME_SYSTEM":"UTC","APOAPSIS":"361.409"},{"OBJECT_ID":"2023-021AK","FILE":"3858484","COUNTRY_CODE":"US","NORAD_CAT_ID":"55661","GP_ID":"227907494","LAUNCH_DATE":"2023-02-17","INCLINATION":"70.0001","OBJECT_NAME":"STARLINK-5475","PERIAPSIS":"356.972","RCS_SIZE":"LARGE","SITE":"AFWTR","CLASSIFICATION_TYPE":"U","ARG_OF_PERICENTER":"264.4232","APOAPSIS":"361.182","TIME_SYSTEM":"UTC","REF_FRAME":"TEME","EPOCH":"2023-03-12T12:49:31.949184","RA_OF_ASC_NODE":"85.9210","MEAN_MOTION_DDOT":"0.0000000000000","MEAN_ELEMENT_THEORY":"SGP4","MEAN_MOTION_DOT":"0.00004224","EPHEMERIS_TYPE":"0","ELEMENT_SET_NO":"999","REV_AT_EPOCH":"412","PERIOD":"91.723","MEAN_MOTION":"15.69937716","CENTER_NAME":"EARTH","OBJECT_TYPE":"PAYLOAD","TLE_LINE1":"1 55661U 23021AK  23071.53439756  .00004224  00000-0  36857-4 0  9991","BSTAR":"0.00003685700000","MEAN_ANOMALY":"95.6607","ECCENTRICITY":"0.00031240","TLE_LINE2":"2 55661  70.0001  85.9210 0003124 264.4232  95.6607 15.69937716  4125","DECAY_DATE":null,"SEMIMAJOR_AXIS":"6737.212"},{"SEMIMAJOR_AXIS":"6737.189","DECAY_DATE":null,"TLE_LINE2":"2 55662  70.0008  85.9241 0003343 270.7237  89.3575 15.69945651  4429","ECCENTRICITY":"0.00033430","MEAN_ANOMALY":"89.3575","BSTAR":"0.00007686700000","TLE_LINE1":"1 55662U 23021AL  23071.53492525  .00009048  00000-0  76867-4 0  9999","OBJECT_TYPE":"PAYLOAD","CENTER_NAME":"EARTH","PERIOD":"91.723","MEAN_MOTION":"15.69945651","REV_AT_EPOCH":"442","ELEMENT_SET_NO":"999","EPHEMERIS_TYPE":"0","MEAN_MOTION_DOT":"0.00009048","MEAN_MOTION_DDOT":"0.0000000000000","MEAN_ELEMENT_THEORY":"SGP4","REF_FRAME":"TEME","RA_OF_ASC_NODE":"85.9241","EPOCH":"2023-03-12T12:50:17.541600","TIME_SYSTEM":"UTC","APOAPSIS":"361.307","ARG_OF_PERICENTER":"270.7237","SITE":"AFWTR","CLASSIFICATION_TYPE":"U","RCS_SIZE":"LARGE","PERIAPSIS":"356.802","INCLINATION":"70.0008","OBJECT_NAME":"STARLINK-5479","LAUNCH_DATE":"2023-02-17","GP_ID":"227966773","NORAD_CAT_ID":"55662","COUNTRY_CODE":"US","FILE":"3858743","OBJECT_ID":"2023-021AL"},{"NORAD_CAT_ID":"55663","OBJECT_ID":"2023-021AM","FILE":"3858484","COUNTRY_CODE":"US","ARG_OF_PERICENTER":"267.8116","APOAPSIS":"361.264","TIME_SYSTEM":"UTC","GP_ID":"227907591","LAUNCH_DATE":"2023-02-17","INCLINATION":"70.0006","OBJECT_NAME":"STARLINK-5473","PERIAPSIS":"356.896","RCS_SIZE":"LARGE","SITE":"AFWTR","CLASSIFICATION_TYPE":"U","MEAN_MOTION_DOT":"0.00004418","EPHEMERIS_TYPE":"0","ELEMENT_SET_NO":"999","REF_FRAME":"TEME","RA_OF_ASC_NODE":"85.9194","EPOCH":"2023-03-12T12:48:46.466496","MEAN_ELEMENT_THEORY":"SGP4","MEAN_MOTION_DDOT":"0.0000000000000","MEAN_ANOMALY":"92.2709","ECCENTRICITY":"0.00032420","TLE_LINE2":"2 55663  70.0006  85.9194 0003242 267.8116  92.2709 15.69936673  4118","DECAY_DATE":null,"SEMIMAJOR_AXIS":"6737.215","REV_AT_EPOCH":"411","MEAN_MOTION":"15.69936673","PERIOD":"91.723","CENTER_NAME":"EARTH","OBJECT_TYPE":"PAYLOAD","TLE_LINE1":"1 55663U 23021AM  23071.53387114  .00004418  00000-0  38469-4 0  9999","BSTAR":"0.00003846900000"},{"MEAN_MOTION":"15.69943843","PERIOD":"91.723","REV_AT_EPOCH":"442","TLE_LINE1":"1 55664U 23021AN  23071.53450666  .00013196  00000-0  11126-3 0  9996","BSTAR":"0.00011126000000","CENTER_NAME":"EARTH","OBJECT_TYPE":"PAYLOAD","MEAN_ANOMALY":"89.0865","ECCENTRICITY":"0.00029230","DECAY_DATE":null,"SEMIMAJOR_AXIS":"6737.195","TLE_LINE2":"2 55664  70.0012  85.9197 0002923 270.9996  89.0865 15.69943843  4423","REF_FRAME":"TEME","RA_OF_ASC_NODE":"85.9197","EPOCH":"2023-03-12T12:49:41.375424","MEAN_ELEMENT_THEORY":"SGP4","MEAN_MOTION_DDOT":"0.0000000000000","ELEMENT_SET_NO":"999","MEAN_MOTION_DOT":"0.00013196","EPHEMERIS_TYPE":"0","LAUNCH_DATE":"2023-02-17","INCLINATION":"70.0012","OBJECT_NAME":"STARLINK-5480","GP_ID":"227966808","RCS_SIZE":"LARGE","SITE":"AFWTR","CLASSIFICATION_TYPE":"U","PERIAPSIS":"357.090","ARG_OF_PERICENTER":"270.9996","TIME_SYSTEM":"UTC","APOAPSIS":"361.029","OBJECT_ID":"2023-021AN","FILE":"3858743","COUNTRY_CODE":"US","NORAD_CAT_ID":"55664"},{"TLE_LINE1":"1 55665U 23021AP  23071.53418870  .00010268  00000-0  86975-4 0  9990","BSTAR":"0.00008697500000","CENTER_NAME":"EARTH","OBJECT_TYPE":"PAYLOAD","PERIOD":"91.723","MEAN_MOTION":"15.69948513","REV_AT_EPOCH":"442","DECAY_DATE":null,"SEMIMAJOR_AXIS":"6737.181","TLE_LINE2":"2 55665  70.0007  85.9204 0003205 269.7422  90.3407 15.69948513  4427","MEAN_ANOMALY":"90.3407","ECCENTRICITY":"0.00032050","MEAN_MOTION_DDOT":"0.0000000000000","MEAN_ELEMENT_THEORY":"SGP4","RA_OF_ASC_NODE":"85.9204","REF_FRAME":"TEME","EPOCH":"2023-03-12T12:49:13.903680","ELEMENT_SET_NO":"999","MEAN_MOTION_DOT":"0.00010268","EPHEMERIS_TYPE":"0","RCS_SIZE":"LARGE","SITE":"AFWTR","CLASSIFICATION_TYPE":"U","PERIAPSIS":"356.887","LAUNCH_DATE":"2023-02-17","INCLINATION":"70.0007","OBJECT_NAME":"STARLINK-5474","GP_ID":"227966857","TIME_SYSTEM":"UTC","APOAPSIS":"361.206","ARG_OF_PERICENTER":"269.7422","FILE":"3858743","COUNTRY_CODE":"US","OBJECT_ID":"2023-021AP","NORAD_CAT_ID":"55665"},{"PERIOD":"90.815","MEAN_MOTION":"15.85647357","REV_AT_EPOCH":"130","TLE_LINE1":"1 55666U 23021AQ  23071.91667824  .00292281  00000-0  11679-2 0  9992","BSTAR":"0.00116790000000","CENTER_NAME":"EARTH","OBJECT_TYPE":"PAYLOAD","MEAN_ANOMALY":"202.1245","ECCENTRICITY":"0.00030570","DECAY_DATE":null,"SEMIMAJOR_AXIS":"6692.640","TLE_LINE2":"2 55666  69.9923  84.2972 0003057 261.0191 202.1245 15.85647357  1306","RA_OF_ASC_NODE":"84.2972","REF_FRAME":"TEME","EPOCH":"2023-03-12T22:00:00.999936","MEAN_MOTION_DDOT":"0.0000000000000","MEAN_ELEMENT_THEORY":"SGP4","ELEMENT_SET_NO":"999","EPHEMERIS_TYPE":"0","MEAN_MOTION_DOT":"0.00292281","LAUNCH_DATE":"2023-02-17","OBJECT_NAME":"STARLINK-5457","INCLINATION":"69.9923","GP_ID":"227966890","RCS_SIZE":"LARGE","SITE":"AFWTR","CLASSIFICATION_TYPE":"U","PERIAPSIS":"312.459","ARG_OF_PERICENTER":"261.0191","TIME_SYSTEM":"UTC","APOAPSIS":"316.550","OBJECT_ID":"2023-021AQ","FILE":"3858743","COUNTRY_CODE":"US","NORAD_CAT_ID":"55666"},{"NORAD_CAT_ID":"55667","OBJECT_ID":"2023-021AR","FILE":"3858743","COUNTRY_CODE":"US","ARG_OF_PERICENTER":"267.2853","APOAPSIS":"361.344","TIME_SYSTEM":"UTC","GP_ID":"227966776","LAUNCH_DATE":"2023-02-17","INCLINATION":"69.9997","OBJECT_NAME":"STARLINK-5456","PERIAPSIS":"356.804","RCS_SIZE":"LARGE","CLASSIFICATION_TYPE":"U","SITE":"AFWTR","EPHEMERIS_TYPE":"0","MEAN_MOTION_DOT":"0.00003421","ELEMENT_SET_NO":"999","RA_OF_ASC_NODE":"85.9172","REF_FRAME":"TEME","EPOCH":"2023-03-12T12:48:37.099872","MEAN_ELEMENT_THEORY":"SGP4","MEAN_MOTION_DDOT":"0.0000000000000","MEAN_ANOMALY":"92.7958","ECCENTRICITY":"0.00033690","TLE_LINE2":"2 55667  69.9997  85.9172 0003369 267.2853  92.7958 15.69938829  4426","DECAY_DATE":null,"SEMIMAJOR_AXIS":"6737.209","REV_AT_EPOCH":"442","MEAN_MOTION":"15.69938829","PERIOD":"91.723","CENTER_NAME":"EARTH","OBJECT_TYPE":"PAYLOAD","TLE_LINE1":"1 55667U 23021AR  23071.53376273  .00003421  00000-0  30191-4 0  9994","BSTAR":"0.00003019100000"},{"ELEMENT_SET_NO":"999","EPHEMERIS_TYPE":"0","MEAN_MOTION_DOT":"0.00004343","MEAN_MOTION_DDOT":"0.0000000000000","MEAN_ELEMENT_THEORY":"SGP4","REF_FRAME":"TEME","RA_OF_ASC_NODE":"85.9200","EPOCH":"2023-03-12T12:49:22.736352","SEMIMAJOR_AXIS":"6737.207","DECAY_DATE":null,"TLE_LINE2":"2 55668  70.0003  85.9200 0003424 272.6931  87.3873 15.69939515  4114","ECCENTRICITY":"0.00034240","MEAN_ANOMALY":"87.3873","BSTAR":"0.00003784600000","TLE_LINE1":"1 55668U 23021AS  23071.53429093  .00004343  00000-0  37846-4 0  9992","OBJECT_TYPE":"PAYLOAD","CENTER_NAME":"EARTH","PERIOD":"91.723","MEAN_MOTION":"15.69939515","REV_AT_EPOCH":"411","NORAD_CAT_ID":"55668","COUNTRY_CODE":"US","FILE":"3858485","OBJECT_ID":"2023-021AS","TIME_SYSTEM":"UTC","APOAPSIS":"361.379","ARG_OF_PERICENTER":"272.6931","SITE":"AFWTR","CLASSIFICATION_TYPE":"U","RCS_SIZE":"LARGE","PERIAPSIS":"356.765","INCLINATION":"70.0003","OBJECT_NAME":"STARLINK-5455","LAUNCH_DATE":"2023-02-17","GP_ID":"227907598"}];
